{
  "type": "FeatureCollection",
  "features": [
    {
      "type": "Feature",
      "properties": {
        "norad_id": 43823,
        "name": "GEO-KOMPSAT-2A",
        "group": "weather",
        "lat": -0.016331979558583995,
        "lon": 19.05133659093701,
        "alt_km": 35786.14502402764,
        "timestamp": "2025-12-19T10:50:00.834720+00:00",
        "meta_object_name": "GEO-KOMPSAT-2A",
        "meta_object_id": "2018-100A",
        "meta_epoch": "2025-12-18T22:27:54.426240",
        "meta_mean_motion": 1.00270137,
        "meta_eccentricity": 5.612e-05,
        "meta_inclination": 0.0517,
        "meta_ra_of_asc_node": 153.3209,
        "meta_arg_of_pericenter": 304.2553,
        "meta_mean_anomaly": 95.4608,
        "meta_ephemeris_type": 0,
        "meta_classification_type": "U",
        "meta_norad_cat_id": 43823,
        "meta_element_set_no": 999,
        "meta_rev_at_epoch": 2582,
        "meta_bstar": 0,
        "meta_mean_motion_dot": -3.19e-06,
        "meta_mean_motion_ddot": 0,
        "tle_line1": "1 43823U 18100A   25352.93604660 -.00000319  00000+0  00000+0 0  9993",
        "tle_line2": "2 43823   0.0517 153.3209 0000561 304.2553  95.4608  1.00270137 25822"
      },
      "geometry": {
        "type": "Point",
        "coordinates": [
          19.05133659093701,
          -0.016331979558583995
        ]
      }
    },
    {
      "type": "Feature",
      "properties": {
        "norad_id": 44387,
        "name": "METEOR-M2 2",
        "group": "weather",
        "lat": -29.11090187436185,
        "lon": 148.25845930267974,
        "alt_km": 816.4118107335089,
        "timestamp": "2025-12-19T10:50:00.834731+00:00",
        "meta_object_name": "METEOR-M2 2",
        "meta_object_id": "2019-038A",
        "meta_epoch": "2025-12-18T22:03:05.950368",
        "meta_mean_motion": 14.24295003,
        "meta_eccentricity": 0.00015219,
        "meta_inclination": 98.8968,
        "meta_ra_of_asc_node": 332.7233,
        "meta_arg_of_pericenter": 135.8521,
        "meta_mean_anomaly": 224.2779,
        "meta_ephemeris_type": 0,
        "meta_classification_type": "U",
        "meta_norad_cat_id": 44387,
        "meta_element_set_no": 999,
        "meta_rev_at_epoch": 33563,
        "meta_bstar": 0.00015933122,
        "meta_mean_motion_dot": 3.22e-06,
        "meta_mean_motion_ddot": 0,
        "tle_line1": "1 44387U 19038A   25352.91881887  .00000322  00000+0  15933-3 0  9994",
        "tle_line2": "2 44387  98.8968 332.7233 0001521 135.8521 224.2779 14.24295003335636"
      },
      "geometry": {
        "type": "Point",
        "coordinates": [
          148.25845930267974,
          -29.11090187436185
        ]
      }
    },
    {
      "type": "Feature",
      "properties": {
        "norad_id": 47719,
        "name": "ARKTIKA-M 1",
        "group": "weather",
        "lat": 45.43876847082291,
        "lon": -127.75499855258042,
        "alt_km": 23227.69300131475,
        "timestamp": "2025-12-19T10:50:00.834753+00:00",
        "meta_object_name": "ARKTIKA-M 1",
        "meta_object_id": "2021-016A",
        "meta_epoch": "2025-12-18T01:24:39.137184",
        "meta_mean_motion": 2.00630666,
        "meta_eccentricity": 0.72069203,
        "meta_inclination": 63.1752,
        "meta_ra_of_asc_node": 83.2669,
        "meta_arg_of_pericenter": 269.1449,
        "meta_mean_anomaly": 15.5709,
        "meta_ephemeris_type": 0,
        "meta_classification_type": "U",
        "meta_norad_cat_id": 47719,
        "meta_element_set_no": 999,
        "meta_rev_at_epoch": 3515,
        "meta_bstar": 0,
        "meta_mean_motion_dot": -1.26e-06,
        "meta_mean_motion_ddot": 0,
        "tle_line1": "1 47719U 21016A   25352.05878631 -.00000126  00000+0  00000+0 0  9991",
        "tle_line2": "2 47719  63.1752  83.2669 7206920 269.1449  15.5709  2.00630666 35159"
      },
      "geometry": {
        "type": "Point",
        "coordinates": [
          -127.75499855258042,
          45.43876847082291
        ]
      }
    },
    {
      "type": "Feature",
      "properties": {
        "norad_id": 49008,
        "name": "FENGYUN 3E",
        "group": "weather",
        "lat": 60.8030133659311,
        "lon": -22.099440889193023,
        "alt_km": 820.256939378085,
        "timestamp": "2025-12-19T10:50:00.834766+00:00",
        "meta_object_name": "FENGYUN 3E",
        "meta_object_id": "2021-062A",
        "meta_epoch": "2025-12-18T22:42:13.548096",
        "meta_mean_motion": 14.19879954,
        "meta_eccentricity": 6.612e-05,
        "meta_inclination": 98.747,
        "meta_ra_of_asc_node": 353.3937,
        "meta_arg_of_pericenter": 221.3156,
        "meta_mean_anomaly": 138.797,
        "meta_ephemeris_type": 0,
        "meta_classification_type": "U",
        "meta_norad_cat_id": 49008,
        "meta_element_set_no": 999,
        "meta_rev_at_epoch": 23100,
        "meta_bstar": -6.8222627e-05,
        "meta_mean_motion_dot": -1.89e-06,
        "meta_mean_motion_ddot": 0,
        "tle_line1": "1 49008U 21062A   25352.94599014 -.00000189  00000+0 -68223-4 0  9994",
        "tle_line2": "2 49008  98.7470 353.3937 0000661 221.3156 138.7970 14.19879954231002"
      },
      "geometry": {
        "type": "Point",
        "coordinates": [
          -22.099440889193023,
          60.8030133659311
        ]
      }
    },
    {
      "type": "Feature",
      "properties": {
        "norad_id": 51850,
        "name": "GOES 18",
        "group": "weather",
        "lat": 0.008399819122113857,
        "lon": 113.80249295073249,
        "alt_km": 35787.265400030825,
        "timestamp": "2025-12-19T10:50:00.834779+00:00",
        "meta_object_name": "GOES 18",
        "meta_object_id": "2022-021A",
        "meta_epoch": "2025-12-18T22:54:59.332032",
        "meta_mean_motion": 1.00272694,
        "meta_eccentricity": 4.909e-05,
        "meta_inclination": 0.0072,
        "meta_ra_of_asc_node": 80.2505,
        "meta_arg_of_pericenter": 257.3702,
        "meta_mean_anomaly": 316.9412,
        "meta_ephemeris_type": 0,
        "meta_classification_type": "U",
        "meta_norad_cat_id": 51850,
        "meta_element_set_no": 999,
        "meta_rev_at_epoch": 478,
        "meta_bstar": 0,
        "meta_mean_motion_dot": 1.21e-06,
        "meta_mean_motion_ddot": 0,
        "tle_line1": "1 51850U 22021A   25352.95485338  .00000121  00000+0  00000+0 0  9990",
        "tle_line2": "2 51850   0.0072  80.2505 0000490 257.3702 316.9412  1.00272694  4785"
      },
      "geometry": {
        "type": "Point",
        "coordinates": [
          113.80249295073249,
          0.008399819122113857
        ]
      }
    },
    {
      "type": "Feature",
      "properties": {
        "norad_id": 54234,
        "name": "NOAA 21 (JPSS-2)",
        "group": "weather",
        "lat": 58.75440386091439,
        "lon": -85.02392701907527,
        "alt_km": 820.0958303485413,
        "timestamp": "2025-12-19T10:50:00.834790+00:00",
        "meta_object_name": "NOAA 21 (JPSS-2)",
        "meta_object_id": "2022-150A",
        "meta_epoch": "2025-12-18T21:01:09.520896",
        "meta_mean_motion": 14.19525881,
        "meta_eccentricity": 0.00019588,
        "meta_inclination": 98.7469,
        "meta_ra_of_asc_node": 289.1077,
        "meta_arg_of_pericenter": 25.9445,
        "meta_mean_anomaly": 334.1829,
        "meta_ephemeris_type": 0,
        "meta_classification_type": "U",
        "meta_norad_cat_id": 54234,
        "meta_element_set_no": 999,
        "meta_rev_at_epoch": 16096,
        "meta_bstar": 4.5087093e-05,
        "meta_mean_motion_dot": 5.1e-07,
        "meta_mean_motion_ddot": 0,
        "tle_line1": "1 54234U 22150A   25352.87580464  .00000051  00000+0  45087-4 0  9990",
        "tle_line2": "2 54234  98.7469 289.1077 0001958  25.9445 334.1829 14.19525881160965"
      },
      "geometry": {
        "type": "Point",
        "coordinates": [
          -85.02392701907527,
          58.75440386091439
        ]
      }
    },
    {
      "type": "Feature",
      "properties": {
        "norad_id": 54743,
        "name": "METEOSAT-12 (MTG-I1)",
        "group": "weather",
        "lat": -0.5242121632635015,
        "lon": -109.51611450677764,
        "alt_km": 35780.400221201846,
        "timestamp": "2025-12-19T10:50:00.834802+00:00",
        "meta_object_name": "METEOSAT-12 (MTG-I1)",
        "meta_object_id": "2022-170C",
        "meta_epoch": "2025-12-18T20:08:30.276384",
        "meta_mean_motion": 1.00270365,
        "meta_eccentricity": 0.00014877,
        "meta_inclination": 0.6932,
        "meta_ra_of_asc_node": 24.6217,
        "meta_arg_of_pericenter": 239.6073,
        "meta_mean_anomaly": 125.2936,
        "meta_ephemeris_type": 0,
        "meta_classification_type": "U",
        "meta_norad_cat_id": 54743,
        "meta_element_set_no": 999,
        "meta_rev_at_epoch": 1116,
        "meta_bstar": 0,
        "meta_mean_motion_dot": 1.7e-07,
        "meta_mean_motion_ddot": 0,
        "tle_line1": "1 54743U 22170C   25352.83923931  .00000017  00000+0  00000+0 0  9996",
        "tle_line2": "2 54743   0.6932  24.6217 0001487 239.6073 125.2936  1.00270365 11168"
      },
      "geometry": {
        "type": "Point",
        "coordinates": [
          -109.51611450677764,
          -0.5242121632635015
        ]
      }
    }
  ]
}